STARLINK-1488
1 25775C 20038AX  21325.17047197  .00002599  00000-0  17406-3 0  3259
2 25775  53.0550  42.4692 0001119  66.6684 184.5689 15.06405420    12
